IRIDIUM 144             
1 43249U 18030A   25212.57448306  .00000157  00000+0  48999-4 0  9998
2 43249  86.3924  64.4370 0002090  90.0261 270.1175 14.34217782384208
IRIDIUM 149             
1 43250U 18030B   25211.95290944  .00000048  00000+0  10226-4 0  9995
2 43250  86.3923  64.6678 0002091  90.7800 269.3635 14.34217796384115
IRIDIUM 157             
1 43251U 18030C   25212.53008627  .00000025  00000+0  19849-5 0  9992
2 43251  86.3924  64.4723 0002363  86.1597 273.9869 14.34217606384176
IRIDIUM 140             
1 43252U 18030D   25212.13050202  .00000018  00000+0 -78713-6 0  9994
2 43252  86.3924  64.6531 0001981  89.3021 270.8402 14.34217570384177
IRIDIUM 145             
1 43253U 18030E   25212.11781668  .00000119  00000+0  35379-4 0  9990
2 43253  86.3923  64.6311 0001972  98.5325 261.6094 14.34217901384108
IRIDIUM 146             
1 43254U 18030F   25212.51739998  .00000064  00000+0  15820-4 0  9992
2 43254  86.3925  64.4772 0001988  97.2983 262.8439 14.34217878384179
IRIDIUM 148             
1 43255U 18030G   25211.85777134 -.00000007  00000+0 -96403-5 0  9999
2 43255  86.3923  64.7915 0002138  90.4758 269.6683 14.34217344384111
IRIDIUM 142             
1 43256U 18030H   25211.82605761  .00000030  00000+0  36185-5 0  9998
2 43256  86.3919  64.7053 0001910 101.4079 258.7331 14.34217483384074
